{
  "type": "FeatureCollection",
  "features": [
    {
      "type": "Feature",
      "properties": {
        "norad_id": 38728,
        "name": "FENGYUN 1C DEB",
        "group": "fengyun-1c-debris",
        "lat": 55.87760763284248,
        "lon": -174.88189789492017,
        "alt_km": 674.102186334645,
        "timestamp": "2025-12-27T19:21:59.038397+00:00",
        "meta_object_name": "FENGYUN 1C DEB",
        "meta_object_id": "1999-025ETV",
        "meta_epoch": "2025-12-26T03:55:53.081184",
        "meta_mean_motion": 14.70806488,
        "meta_eccentricity": 0.00746168,
        "meta_inclination": 99.2616,
        "meta_ra_of_asc_node": 349.3183,
        "meta_arg_of_pericenter": 13.9217,
        "meta_mean_anomaly": 52.9999,
        "meta_ephemeris_type": 0,
        "meta_classification_type": "U",
        "meta_norad_cat_id": 38728,
        "meta_element_set_no": 999,
        "meta_rev_at_epoch": 65808,
        "meta_bstar": 0.0014609826,
        "meta_mean_motion_dot": 9.262e-05,
        "meta_mean_motion_ddot": 0,
        "tle_line1": "1 38728U 99025ETV 25360.16380881  .00009262  00000+0  14610-2 0  9996",
        "tle_line2": "2 38728  99.2616 349.3183 0074616  13.9217  52.9999 14.70806488658087"
      },
      "geometry": {
        "type": "Point",
        "coordinates": [
          -174.88189789492017,
          55.87760763284248
        ]
      }
    },
    {
      "type": "Feature",
      "properties": {
        "norad_id": 38789,
        "name": "FENGYUN 1C DEB",
        "group": "fengyun-1c-debris",
        "lat": 20.893648116733388,
        "lon": 71.96584307527259,
        "alt_km": 886.6107479807733,
        "timestamp": "2025-12-27T19:21:59.038407+00:00",
        "meta_object_name": "FENGYUN 1C DEB",
        "meta_object_id": "1999-025EUD",
        "meta_epoch": "2025-12-16T11:04:27.892416",
        "meta_mean_motion": 14.45831603,
        "meta_eccentricity": 0.02075268,
        "meta_inclination": 98.8566,
        "meta_ra_of_asc_node": 236.7044,
        "meta_arg_of_pericenter": 14.1855,
        "meta_mean_anomaly": 164.1034,
        "meta_ephemeris_type": 0,
        "meta_classification_type": "U",
        "meta_norad_cat_id": 38789,
        "meta_element_set_no": 999,
        "meta_rev_at_epoch": 61899,
        "meta_bstar": 0.00050950207,
        "meta_mean_motion_dot": 2.303e-05,
        "meta_mean_motion_ddot": 0,
        "tle_line1": "1 38789U 99025EUD 25350.46143394  .00002303  00000+0  50950-3 0  9998",
        "tle_line2": "2 38789  98.8566 236.7044 0207526  14.1855 164.1034 14.45831603618998"
      },
      "geometry": {
        "type": "Point",
        "coordinates": [
          71.96584307527259,
          20.893648116733388
        ]
      }
    },
    {
      "type": "Feature",
      "properties": {
        "norad_id": 38795,
        "name": "FENGYUN 1C DEB",
        "group": "fengyun-1c-debris",
        "lat": 57.05802829038212,
        "lon": -143.8534657876333,
        "alt_km": 1165.5107718650406,
        "timestamp": "2025-12-27T19:21:59.038417+00:00",
        "meta_object_name": "FENGYUN 1C DEB",
        "meta_object_id": "1999-025EUK",
        "meta_epoch": "2025-12-26T08:24:09.300096",
        "meta_mean_motion": 13.29955469,
        "meta_eccentricity": 0.0503292,
        "meta_inclination": 98.7034,
        "meta_ra_of_asc_node": 21.2372,
        "meta_arg_of_pericenter": 221.9888,
        "meta_mean_anomaly": 134.1615,
        "meta_ephemeris_type": 0,
        "meta_classification_type": "U",
        "meta_norad_cat_id": 38795,
        "meta_element_set_no": 999,
        "meta_rev_at_epoch": 78693,
        "meta_bstar": 0.0021147,
        "meta_mean_motion_dot": 1.954e-05,
        "meta_mean_motion_ddot": 0,
        "tle_line1": "1 38795U 99025EUK 25360.35010764  .00001954  00000+0  21147-2 0  9994",
        "tle_line2": "2 38795  98.7034  21.2372 0503292 221.9888 134.1615 13.29955469786938"
      },
      "geometry": {
        "type": "Point",
        "coordinates": [
          -143.8534657876333,
          57.05802829038212
        ]
      }
    },
    {
      "type": "Feature",
      "properties": {
        "norad_id": 38797,
        "name": "FENGYUN 1C DEB",
        "group": "fengyun-1c-debris",
        "lat": -41.01815212436171,
        "lon": 65.88344256053357,
        "alt_km": 893.2645872914736,
        "timestamp": "2025-12-27T19:21:59.038426+00:00",
        "meta_object_name": "FENGYUN 1C DEB",
        "meta_object_id": "1999-025EUM",
        "meta_epoch": "2025-12-26T10:32:41.326080",
        "meta_mean_motion": 13.61616863,
        "meta_eccentricity": 0.0245003,
        "meta_inclination": 99.4843,
        "meta_ra_of_asc_node": 252.9147,
        "meta_arg_of_pericenter": 186.2121,
        "meta_mean_anomaly": 173.5966,
        "meta_ephemeris_type": 0,
        "meta_classification_type": "U",
        "meta_norad_cat_id": 38797,
        "meta_element_set_no": 999,
        "meta_rev_at_epoch": 59469,
        "meta_bstar": 0.00027425,
        "meta_mean_motion_dot": 2.14e-06,
        "meta_mean_motion_ddot": 0,
        "tle_line1": "1 38797U 99025EUM 25360.43936720  .00000214  00000+0  27425-3 0  9998",
        "tle_line2": "2 38797  99.4843 252.9147 0245003 186.2121 173.5966 13.61616863594699"
      },
      "geometry": {
        "type": "Point",
        "coordinates": [
          65.88344256053357,
          -41.01815212436171
        ]
      }
    },
    {
      "type": "Feature",
      "properties": {
        "norad_id": 38799,
        "name": "FENGYUN 1C DEB",
        "group": "fengyun-1c-debris",
        "lat": -81.58777782040384,
        "lon": 168.6397400617761,
        "alt_km": 640.4383009073381,
        "timestamp": "2025-12-27T19:21:59.038437+00:00",
        "meta_object_name": "FENGYUN 1C DEB",
        "meta_object_id": "1999-025EUP",
        "meta_epoch": "2025-12-27T11:28:59.756160",
        "meta_mean_motion": 14.48859697,
        "meta_eccentricity": 0.0163115,
        "meta_inclination": 98.4042,
        "meta_ra_of_asc_node": 76.8782,
        "meta_arg_of_pericenter": 305.1924,
        "meta_mean_anomaly": 53.4086,
        "meta_ephemeris_type": 0,
        "meta_classification_type": "U",
        "meta_norad_cat_id": 38799,
        "meta_element_set_no": 999,
        "meta_rev_at_epoch": 64252,
        "meta_bstar": 0.0010705,
        "meta_mean_motion_dot": 4.742e-05,
        "meta_mean_motion_ddot": 0,
        "tle_line1": "1 38799U 99025EUP 25361.47846940  .00004742  00000+0  10705-2 0  9991",
        "tle_line2": "2 38799  98.4042  76.8782 0163115 305.1924  53.4086 14.48859697642520"
      },
      "geometry": {
        "type": "Point",
        "coordinates": [
          168.6397400617761,
          -81.58777782040384
        ]
      }
    },
    {
      "type": "Feature",
      "properties": {
        "norad_id": 38801,
        "name": "FENGYUN 1C DEB",
        "group": "fengyun-1c-debris",
        "lat": -29.283351398596036,
        "lon": 56.5069083592916,
        "alt_km": 584.1810705091821,
        "timestamp": "2025-12-27T19:21:59.038446+00:00",
        "meta_object_name": "FENGYUN 1C DEB",
        "meta_object_id": "1999-025EUR",
        "meta_epoch": "2025-12-26T09:52:03.215712",
        "meta_mean_motion": 14.24870894,
        "meta_eccentricity": 0.0346269,
        "meta_inclination": 98.3719,
        "meta_ra_of_asc_node": 50.4355,
        "meta_arg_of_pericenter": 311.7065,
        "meta_mean_anomaly": 61.6244,
        "meta_ephemeris_type": 0,
        "meta_classification_type": "U",
        "meta_norad_cat_id": 38801,
        "meta_element_set_no": 999,
        "meta_rev_at_epoch": 64555,
        "meta_bstar": 0.00052893,
        "meta_mean_motion_dot": 2.26e-05,
        "meta_mean_motion_ddot": 0,
        "tle_line1": "1 38801U 99025EUR 25360.41114833  .00002260  00000+0  52893-3 0  9995",
        "tle_line2": "2 38801  98.3719  50.4355 0346269 311.7065  61.6244 14.24870894645559"
      },
      "geometry": {
        "type": "Point",
        "coordinates": [
          56.5069083592916,
          -29.283351398596036
        ]
      }
    },
    {
      "type": "Feature",
      "properties": {
        "norad_id": 38803,
        "name": "FENGYUN 1C DEB",
        "group": "fengyun-1c-debris",
        "lat": 39.572299082653075,
        "lon": -166.13170012918275,
        "alt_km": 847.4029981947815,
        "timestamp": "2025-12-27T19:21:59.038455+00:00",
        "meta_object_name": "FENGYUN 1C DEB",
        "meta_object_id": "1999-025EUT",
        "meta_epoch": "2025-12-25T22:51:47.888640",
        "meta_mean_motion": 14.23791722,
        "meta_eccentricity": 0.0063593,
        "meta_inclination": 99.1379,
        "meta_ra_of_asc_node": 4.2982,
        "meta_arg_of_pericenter": 358.616,
        "meta_mean_anomaly": 1.4832,
        "meta_ephemeris_type": 0,
        "meta_classification_type": "U",
        "meta_norad_cat_id": 38803,
        "meta_element_set_no": 999,
        "meta_rev_at_epoch": 60400,
        "meta_bstar": 0.0021621,
        "meta_mean_motion_dot": 5.004e-05,
        "meta_mean_motion_ddot": 0,
        "tle_line1": "1 38803U 99025EUT 25359.95263760  .00005004  00000+0  21621-2 0  9991",
        "tle_line2": "2 38803  99.1379   4.2982 0063593 358.6160   1.4832 14.23791722604008"
      },
      "geometry": {
        "type": "Point",
        "coordinates": [
          -166.13170012918275,
          39.572299082653075
        ]
      }
    }
  ]
}